start=new Date('2023-05-09T00:00:00.000Z').valueOf();
sats=[{"MEAN_MOTION":"15.08848981","NORAD_CAT_ID":"53712","SITE":"AFETR","ARG_OF_PERICENTER":"84.9912","OBJECT_ID":"2022-107N","REV_AT_EPOCH":"3807","PERIAPSIS":"538.944","TLE_LINE1":"1 53712U 22107N   23128.53596834  .00001050  00000-0  84032-4 0  9996","GP_ID":"231475829","REF_FRAME":"TEME","RCS_SIZE":"LARGE","PERIOD":"95.437","APOAPSIS":"540.492","DECAY_DATE":null,"MEAN_MOTION_DDOT":"0.0000000000000","OBJECT_NAME":"STARLINK-4683","RA_OF_ASC_NODE":"220.3458","ECCENTRICITY":"0.00011190","BSTAR":"0.00008403200000","OBJECT_TYPE":"PAYLOAD","EPOCH":"2023-05-08T12:51:47.664576","INCLINATION":"53.2154","COUNTRY_CODE":"US","CLASSIFICATION_TYPE":"U","SEMIMAJOR_AXIS":"6917.853","CENTER_NAME":"EARTH","EPHEMERIS_TYPE":"0","MEAN_MOTION_DOT":"0.00001050","FILE":"3904305","MEAN_ELEMENT_THEORY":"SGP4","LAUNCH_DATE":"2022-09-05","TIME_SYSTEM":"UTC","MEAN_ANOMALY":"275.1208","ELEMENT_SET_NO":"999","TLE_LINE2":"2 53712  53.2154 220.3458 0001119  84.9912 275.1208 15.08848981 38074"},{"LAUNCH_DATE":"2022-09-05","MEAN_ELEMENT_THEORY":"SGP4","ELEMENT_SET_NO":"999","TIME_SYSTEM":"UTC","MEAN_ANOMALY":"260.7301","TLE_LINE2":"2 53713  53.2141 224.9438 0001163  99.3823 260.7301 15.08838428 37998","MEAN_MOTION_DOT":"-0.00001087","FILE":"3904305","COUNTRY_CODE":"US","CLASSIFICATION_TYPE":"U","SEMIMAJOR_AXIS":"6917.885","CENTER_NAME":"EARTH","EPHEMERIS_TYPE":"0","OBJECT_TYPE":"PAYLOAD","EPOCH":"2023-05-08T14:11:52.293408","INCLINATION":"53.2141","RA_OF_ASC_NODE":"224.9438","OBJECT_NAME":"STARLINK-4698","ECCENTRICITY":"0.00011630","BSTAR":"-0.00005021400000","MEAN_MOTION_DDOT":"0.0000000000000","GP_ID":"231474581","TLE_LINE1":"1 53713U 22107P   23128.59157747 -.00001087  00000-0 -50214-4 0  9996","PERIAPSIS":"538.946","REF_FRAME":"TEME","RCS_SIZE":"LARGE","PERIOD":"95.438","APOAPSIS":"540.555","DECAY_DATE":null,"MEAN_MOTION":"15.08838428","NORAD_CAT_ID":"53713","ARG_OF_PERICENTER":"99.3823","SITE":"AFETR","OBJECT_ID":"2022-107P","REV_AT_EPOCH":"3799"},{"REV_AT_EPOCH":"3834","OBJECT_ID":"2022-107Q","SITE":"AFETR","ARG_OF_PERICENTER":"103.5334","NORAD_CAT_ID":"53714","MEAN_MOTION":"15.08835945","DECAY_DATE":null,"APOAPSIS":"540.642","RCS_SIZE":"LARGE","PERIOD":"95.438","REF_FRAME":"TEME","GP_ID":"231474826","TLE_LINE1":"1 53714U 22107Q   23128.60309699 -.00000235  00000-0  33116-5 0  9990","PERIAPSIS":"538.874","MEAN_MOTION_DDOT":"0.0000000000000","BSTAR":"0.00000331160000","ECCENTRICITY":"0.00012780","OBJECT_NAME":"STARLINK-4688","RA_OF_ASC_NODE":"200.0714","INCLINATION":"53.2149","EPOCH":"2023-05-08T14:28:27.579936","OBJECT_TYPE":"PAYLOAD","EPHEMERIS_TYPE":"0","CENTER_NAME":"EARTH","SEMIMAJOR_AXIS":"6917.893","CLASSIFICATION_TYPE":"U","COUNTRY_CODE":"US","FILE":"3904305","MEAN_MOTION_DOT":"-0.00000235","TLE_LINE2":"2 53714  53.2149 200.0714 0001278 103.5334 256.5801 15.08835945 38340","LAUNCH_DATE":"2022-09-05","MEAN_ELEMENT_THEORY":"SGP4","TIME_SYSTEM":"UTC","ELEMENT_SET_NO":"999","MEAN_ANOMALY":"256.5801"},{"FILE":"3903967","MEAN_MOTION_DOT":"-0.00005624","LAUNCH_DATE":"2022-09-05","MEAN_ELEMENT_THEORY":"SGP4","TIME_SYSTEM":"UTC","MEAN_ANOMALY":"251.9798","ELEMENT_SET_NO":"999","TLE_LINE2":"2 53715  53.2149 225.3103 0000633 108.1263 251.9798 15.08842530 37531","OBJECT_TYPE":"PAYLOAD","INCLINATION":"53.2149","EPOCH":"2023-05-08T12:52:23.219904","SEMIMAJOR_AXIS":"6917.873","COUNTRY_CODE":"US","CLASSIFICATION_TYPE":"U","EPHEMERIS_TYPE":"0","CENTER_NAME":"EARTH","MEAN_MOTION_DDOT":"0.0000000000000","RA_OF_ASC_NODE":"225.3103","OBJECT_NAME":"STARLINK-4686","BSTAR":"-0.00033551000000","ECCENTRICITY":"0.00006330","ARG_OF_PERICENTER":"108.1263","SITE":"AFETR","MEAN_MOTION":"15.08842530","NORAD_CAT_ID":"53715","REV_AT_EPOCH":"3753","OBJECT_ID":"2022-107R","REF_FRAME":"TEME","PERIOD":"95.437","RCS_SIZE":"LARGE","GP_ID":"231446582","TLE_LINE1":"1 53715U 22107R   23128.53637986 -.00005624  00000-0 -33551-3 0  9995","PERIAPSIS":"539.300","DECAY_DATE":null,"APOAPSIS":"540.176"},{"MEAN_MOTION_DDOT":"0.0000000000000","ECCENTRICITY":"0.00006880","BSTAR":"0.00107670000000","RA_OF_ASC_NODE":"225.2873","OBJECT_NAME":"STARLINK-4699","OBJECT_ID":"2022-107S","REV_AT_EPOCH":"3798","MEAN_MOTION":"15.08862010","NORAD_CAT_ID":"53716","SITE":"AFETR","ARG_OF_PERICENTER":"98.9385","APOAPSIS":"540.154","DECAY_DATE":null,"GP_ID":"231476330","TLE_LINE1":"1 53716U 22107S   23128.53270836  .00016900  00000-0  10767-2 0  9993","PERIAPSIS":"539.202","REF_FRAME":"TEME","RCS_SIZE":"LARGE","PERIOD":"95.436","MEAN_MOTION_DOT":"0.00016900","FILE":"3904305","TLE_LINE2":"2 53716  53.2147 225.2873 0000688  98.9385 261.1685 15.08862010 37986","LAUNCH_DATE":"2022-09-05","MEAN_ELEMENT_THEORY":"SGP4","MEAN_ANOMALY":"261.1685","TIME_SYSTEM":"UTC","ELEMENT_SET_NO":"999","EPOCH":"2023-05-08T12:47:06.002304","INCLINATION":"53.2147","OBJECT_TYPE":"PAYLOAD","CENTER_NAME":"EARTH","EPHEMERIS_TYPE":"0","COUNTRY_CODE":"US","CLASSIFICATION_TYPE":"U","SEMIMAJOR_AXIS":"6917.813"},{"OBJECT_NAME":"STARLINK-4695","RA_OF_ASC_NODE":"225.2619","BSTAR":"0.00030116000000","ECCENTRICITY":"0.00011950","MEAN_MOTION_DDOT":"0.0000000000000","REF_FRAME":"TEME","PERIOD":"95.438","RCS_SIZE":"LARGE","GP_ID":"231446591","TLE_LINE1":"1 53718U 22107U   23128.52901878  .00004507  00000-0  30116-3 0  9992","PERIAPSIS":"538.940","DECAY_DATE":null,"APOAPSIS":"540.593","SITE":"AFETR","ARG_OF_PERICENTER":"104.0918","MEAN_MOTION":"15.08833044","NORAD_CAT_ID":"53718","REV_AT_EPOCH":"3753","OBJECT_ID":"2022-107U","LAUNCH_DATE":"2022-09-05","TIME_SYSTEM":"UTC","MEAN_ELEMENT_THEORY":"SGP4","MEAN_ANOMALY":"256.0207","ELEMENT_SET_NO":"999","TLE_LINE2":"2 53718  53.2145 225.2619 0001195 104.0918 256.0207 15.08833044 37538","FILE":"3903968","MEAN_MOTION_DOT":"0.00004507","SEMIMAJOR_AXIS":"6917.902","COUNTRY_CODE":"US","CLASSIFICATION_TYPE":"U","EPHEMERIS_TYPE":"0","CENTER_NAME":"EARTH","OBJECT_TYPE":"PAYLOAD","EPOCH":"2023-05-08T12:41:47.222592","INCLINATION":"53.2145"},{"BSTAR":"0.00007324500000","ECCENTRICITY":"0.00015810","OBJECT_NAME":"STARLINK-4644","RA_OF_ASC_NODE":"206.9552","MEAN_MOTION_DDOT":"0.0000000000000","DECAY_DATE":null,"APOAPSIS":"540.839","REF_FRAME":"TEME","PERIOD":"95.438","RCS_SIZE":"LARGE","TLE_LINE1":"1 53719U 22107V   23125.95675874  .00000878  00000-0  73245-4 0  9999","GP_ID":"231353009","PERIAPSIS":"538.652","REV_AT_EPOCH":"3802","OBJECT_ID":"2022-107V","SITE":"AFETR","ARG_OF_PERICENTER":"102.8837","MEAN_MOTION":"15.08839905","NORAD_CAT_ID":"53719","TLE_LINE2":"2 53719  53.2162 206.9552 0001581 102.8837 257.2332 15.08839905 38024","TIME_SYSTEM":"UTC","LAUNCH_DATE":"2022-09-05","MEAN_ANOMALY":"257.2332","MEAN_ELEMENT_THEORY":"SGP4","ELEMENT_SET_NO":"999","FILE":"3902298","MEAN_MOTION_DOT":"0.00000878","EPHEMERIS_TYPE":"0","CENTER_NAME":"EARTH","SEMIMAJOR_AXIS":"6917.881","COUNTRY_CODE":"US","CLASSIFICATION_TYPE":"U","EPOCH":"2023-05-05T22:57:43.955136","INCLINATION":"53.2162","OBJECT_TYPE":"PAYLOAD"},{"NORAD_CAT_ID":"53720","MEAN_MOTION":"15.08855919","SITE":"AFETR","ARG_OF_PERICENTER":"104.8224","OBJECT_ID":"2022-107W","REV_AT_EPOCH":"3753","PERIAPSIS":"538.927","TLE_LINE1":"1 53720U 22107W   23128.54006601  .00000813  00000-0  69118-4 0  9998","GP_ID":"231446596","PERIOD":"95.437","RCS_SIZE":"LARGE","REF_FRAME":"TEME","APOAPSIS":"540.467","DECAY_DATE":null,"MEAN_MOTION_DDOT":"0.0000000000000","RA_OF_ASC_NODE":"225.3322","OBJECT_NAME":"STARLINK-4642","ECCENTRICITY":"0.00011130","BSTAR":"0.00006911800000","OBJECT_TYPE":"PAYLOAD","EPOCH":"2023-05-08T12:57:41.703264","INCLINATION":"53.2165","CLASSIFICATION_TYPE":"U","COUNTRY_CODE":"US","SEMIMAJOR_AXIS":"6917.832","CENTER_NAME":"EARTH","EPHEMERIS_TYPE":"0","MEAN_MOTION_DOT":"0.00000813","FILE":"3903968","LAUNCH_DATE":"2022-09-05","TIME_SYSTEM":"UTC","MEAN_ANOMALY":"255.2892","MEAN_ELEMENT_THEORY":"SGP4","ELEMENT_SET_NO":"999","TLE_LINE2":"2 53720  53.2165 225.3322 0001113 104.8224 255.2892 15.08855919 37539"},{"BSTAR":"-0.00003073600000","ECCENTRICITY":"0.00010610","RA_OF_ASC_NODE":"225.6793","OBJECT_NAME":"STARLINK-4707","MEAN_MOTION_DDOT":"0.0000000000000","DECAY_DATE":null,"APOAPSIS":"540.484","REF_FRAME":"TEME","PERIOD":"95.438","RCS_SIZE":"LARGE","TLE_LINE1":"1 53721U 22107X   23128.48120709 -.00000777  00000-0 -30736-4 0  9993","PERIAPSIS":"539.016","GP_ID":"231446758","REV_AT_EPOCH":"3752","OBJECT_ID":"2022-107X","SITE":"AFETR","ARG_OF_PERICENTER":"68.0759","MEAN_MOTION":"15.08838639","NORAD_CAT_ID":"53721","TLE_LINE2":"2 53721  53.2149 225.6793 0001061  68.0759 292.0346 15.08838639 37525","LAUNCH_DATE":"2022-09-05","TIME_SYSTEM":"UTC","MEAN_ELEMENT_THEORY":"SGP4","MEAN_ANOMALY":"292.0346","ELEMENT_SET_NO":"999","FILE":"3903978","MEAN_MOTION_DOT":"-0.00000777","EPHEMERIS_TYPE":"0","CENTER_NAME":"EARTH","SEMIMAJOR_AXIS":"6917.885","COUNTRY_CODE":"US","CLASSIFICATION_TYPE":"U","INCLINATION":"53.2149","EPOCH":"2023-05-08T11:32:56.292576","OBJECT_TYPE":"PAYLOAD"},{"ECCENTRICITY":"0.00011170","BSTAR":"0.00000128090000","OBJECT_NAME":"STARLINK-4700","RA_OF_ASC_NODE":"225.4224","MEAN_MOTION_DDOT":"0.0000000000000","APOAPSIS":"540.513","DECAY_DATE":null,"GP_ID":"231446089","TLE_LINE1":"1 53722U 22107Y   23128.55481356 -.00000267  00000-0  12809-5 0  9995","PERIAPSIS":"538.967","PERIOD":"95.437","RCS_SIZE":"LARGE","REF_FRAME":"TEME","OBJECT_ID":"2022-107Y","REV_AT_EPOCH":"3753","NORAD_CAT_ID":"53722","MEAN_MOTION":"15.08841768","ARG_OF_PERICENTER":"96.9401","SITE":"AFETR","TLE_LINE2":"2 53722  53.2138 225.4224 0001117  96.9401 263.1718 15.08841768 37537","TIME_SYSTEM":"UTC","LAUNCH_DATE":"2022-09-05","ELEMENT_SET_NO":"999","MEAN_ANOMALY":"263.1718","MEAN_ELEMENT_THEORY":"SGP4","MEAN_MOTION_DOT":"-0.00000267","FILE":"3903968","CENTER_NAME":"EARTH","EPHEMERIS_TYPE":"0","CLASSIFICATION_TYPE":"U","COUNTRY_CODE":"US","SEMIMAJOR_AXIS":"6917.875","INCLINATION":"53.2138","EPOCH":"2023-05-08T13:18:55.891584","OBJECT_TYPE":"PAYLOAD"}];
